GLOBALSTAR M068         
1 32266U 07048D   25009.30415925 -.00000076  00000+0  15262-3 0  9995
2 32266  51.9894  66.5815 0001482 140.8790 307.4436 12.62813104797482
GLOBALSTAR M079         
1 37188U 10054A   25009.20021208 -.00000075  00000+0  15914-3 0  9993
2 37188  52.0033 263.7717 0000751  49.5067 123.4322 12.62269716656375
GLOBALSTAR M074         
1 37189U 10054B   25009.14538587 -.00000069  00000+0  19525-3 0  9995
2 37189  52.0010 263.2848 0001077  65.8830  98.1451 12.62261521656975
GLOBALSTAR M076         
1 37190U 10054C   25009.17214802 -.00000076  00000+0  15404-3 0  9991
2 37190  52.0019 263.3601 0001059  49.1210 116.6595 12.62275994656694
GLOBALSTAR M077         
1 37191U 10054D   25009.31864334 -.00000069  00000+0  19546-3 0  9992
2 37191  52.0044 219.7252 0001089  80.2279  90.5793 12.62269829657088
GLOBALSTAR M075         
1 37192U 10054E   25009.17960800 -.00000074  00000+0  16844-3 0  9996
2 37192  51.9964 305.6809 0000712  59.5401  80.9595 12.62271454655762
GLOBALSTAR M073         
1 37193U 10054F   25009.34480111 -.00000065  00000+0  21769-3 0  9990
2 37193  52.0031 218.8756 0001058  74.2001  96.8420 12.62262390657821
GLOBALSTAR M083         
1 37739U 11033A   25009.19950059 -.00000076  00000+0  15319-3 0  9996
2 37739  51.9834 168.2643 0000870 103.5986  67.3027 12.62270556626777
GLOBALSTAR M088         
1 37740U 11033B   25009.22322144 -.00000096  00000+0  43779-4 0  9994
2 37740  51.9745  73.8174 0000499 137.6195 261.4666 12.62267192622322
GLOBALSTAR M091         
1 37741U 11033C   25009.24525098 -.00000094  00000+0  52243-4 0  9994
2 37741  52.0014  37.0223 0000324 177.0476 261.4613 12.62272539623119
GLOBALSTAR M085         
1 37742U 11033D   25009.32529205 -.00000086  00000+0  10051-3 0  9999
2 37742  51.9893 347.9571 0000117  58.0260  84.8406 12.62263677623638
GLOBALSTAR M081         
1 37743U 11033E   25009.34352720 -.00000086  00000+0  98241-4 0  9996
2 37743  51.9981 350.5885 0000320   7.2673  99.6206 12.62275116623784
GLOBALSTAR M089         
1 37744U 11033F   25009.31125208 -.00000077  00000+0  15155-3 0  9995
2 37744  51.9946 304.9478 0000885  52.2481  86.9090 12.62264417624873
GLOBALSTAR M084         
1 38040U 11080A   25009.37447674 -.00000078  00000+0  14599-3 0  9999
2 38040  51.9984 171.9560 0001313  89.9024 276.8222 12.62273437602613
GLOBALSTAR M080         
1 38041U 11080B   25009.22629801 -.00000078  00000+0  14472-3 0  9998
2 38041  52.0036 173.9617 0001302  75.3020  95.6432 12.62260468602713
GLOBALSTAR M082         
1 38042U 11080C   25009.28449559 -.00000097  00000+0  39042-4 0  9997
2 38042  52.0069 129.2110 0001023 141.4887 235.5563 12.62271987603436
GLOBALSTAR M092         
1 38043U 11080D   25009.29240987 -.00000072  00000+0  17807-3 0  9990
2 38043  52.0055 219.5567 0001140  84.4322  88.5986 12.62271860601883
GLOBALSTAR M090         
1 38044U 11080E   25009.31750750 -.00000099  00000+0  26709-4 0  9999
2 38044  51.9881 123.1239 0000797 127.7708 279.1341 12.62265585603591
GLOBALSTAR M086         
1 38045U 11080F   25009.34124285 -.00000102  00000+0  72182-5 0  9993
2 38045  51.9891 123.5896 0000496  38.3117 356.9554 12.62265554603500
GLOBALSTAR M097         
1 39072U 13005A   25009.36023621 -.00000084  00000+0  11164-3 0  9997
2 39072  52.0060  37.9195 0000137 136.8313 223.2564 12.62268755550835
GLOBALSTAR M093         
1 39073U 13005B   25009.33320638 -.00000091  00000+0  72855-4 0  9996
2 39073  51.9825  31.5544 0000078 138.0336 222.0537 12.62260832550828
GLOBALSTAR M094         
1 39074U 13005C   25009.25444148 -.00000087  00000+0  93617-4 0  9995
2 39074  51.9976 306.0219 0000437  28.0930 331.9961 12.62266835552329
GLOBALSTAR M096         
1 39075U 13005D   25009.34684451 -.00000090  00000+0  74305-4 0  9996
2 39075  52.0096 354.1297 0000063 329.3263  30.7600 12.62266491551585
GLOBALSTAR M078         
1 39076U 13005E   25009.24066538 -.00000104  00000+0 -84751-7 0  9992
2 39076  51.9884  79.1745 0001276 165.1209 194.9696 12.62266769550051
GLOBALSTAR M095         
1 39077U 13005F   25009.26745825 -.00000091  00000+0  72031-4 0  9997
2 39077  51.9807  76.3719 0000762 175.3877 184.6996 12.62265189549704
GLOBALSTAR M087         
1 52888U 22064A   25009.71446874 -.00000075  00000+0  14381-3 0  9994
2 52888  51.9753 217.1397 0021625  31.4340 328.7827 12.88919025125015
